{"type": "FeatureCollection", "features": [ {"type": "Feature", "properties": {"norad_id": 28649, "name": "IRS-P5 (CARTOSAT-1)", "group": "resource", "lat": -73.7904679747898, "lon": 162.66414243428287, "alt_km": 604.9487320131202, "timestamp": "2025-12-09T05:43:20.384193+00:00", "meta": {"OBJECT_NAME": "IRS-P5 (CARTOSAT-1)", "OBJECT_ID": "2005-017A", "EPOCH": "2025-12-08T18:54:39.665376", "MEAN_MOTION": 14.9038606, "ECCENTRICITY": 0.0001475, "INCLINATION": 97.5496, "RA_OF_ASC_NODE": 9.3764, "ARG_OF_PERICENTER": 47.9419, "MEAN_ANOMALY": 312.1925, "EPHEMERIS_TYPE": 0, "CLASSIFICATION_TYPE": "U", "NORAD_CAT_ID": 28649, "ELEMENT_SET_NO": 999, "REV_AT_EPOCH": 11545, "BSTAR": 0.00028433, "MEAN_MOTION_DOT": 2.716e-05, "MEAN_MOTION_DDOT": 0}, "tle": {"line1": "1 28649U 05017A   25342.78795909  .00002716  00000+0  28433-3 0  9990", "line2": "2 28649  97.5496   9.3764 0001475  47.9419 312.1925 14.90386060115457"}}, "geometry": {"type": "Point", "coordinates": [162.66414243428287, -73.7904679747898]}}, {"type": "Feature", "properties": {"norad_id": 28893, "name": "SINAH 1", "group": "resource", "lat": -41.238755999268506, "lon": -75.53006361164903, "alt_km": 684.0929230595548, "timestamp": "2025-12-09T05:43:20.384204+00:00", "meta": {"OBJECT_NAME": "SINAH 1", "OBJECT_ID": "2005-043D", "EPOCH": "2025-12-08T18:52:18.398784", "MEAN_MOTION": 14.63956445, "ECCENTRICITY": 0.001514, "INCLINATION": 98.2601, "RA_OF_ASC_NODE": 111.3331, "ARG_OF_PERICENTER": 148.7476, "MEAN_ANOMALY": 211.4629, "EPHEMERIS_TYPE": 0, "CLASSIFICATION_TYPE": "U", "NORAD_CAT_ID": 28893, "ELEMENT_SET_NO": 999, "REV_AT_EPOCH": 7266, "BSTAR": 0.00020551, "MEAN_MOTION_DOT": 1.028e-05, "MEAN_MOTION_DDOT": 0}, "tle": {"line1": "1 28893U 05043D   25342.78632406  .00001028  00000+0  20551-3 0  9990", "line2": "2 28893  98.2601 111.3331 0015140 148.7476 211.4629 14.63956445 72662"}}, "geometry": {"type": "Point", "coordinates": [-75.53006361164903, -41.238755999268506]}}, {"type": "Feature", "properties": {"norad_id": 29079, "name": "EROS B", "group": "resource", "lat": 7.139426186247334, "lon": 98.72304027237409, "alt_km": 370.0752686563228, "timestamp": "2025-12-09T05:43:20.384216+00:00", "meta": {"OBJECT_NAME": "EROS B", "OBJECT_ID": "2006-014A", "EPOCH": "2025-12-08T20:29:40.919712", "MEAN_MOTION": 15.66703903, "ECCENTRICITY": 0.0001617, "INCLINATION": 97.3477, "RA_OF_ASC_NODE": 99.2473, "ARG_OF_PERICENTER": 281.4228, "MEAN_ANOMALY": 78.6851, "EPHEMERIS_TYPE": 0, "CLASSIFICATION_TYPE": "U", "NORAD_CAT_ID": 29079, "ELEMENT_SET_NO": 999, "REV_AT_EPOCH": 9019, "BSTAR": 0.0017136, "MEAN_MOTION_DOT": 0.00183398, "MEAN_MOTION_DDOT": 0}, "tle": {"line1": "1 29079U 06014A   25342.85394583  .00183398  00000+0  17136-2 0  9990", "line2": "2 29079  97.3477  99.2473 0001617 281.4228  78.6851 15.66703903 90196"}}, "geometry": {"type": "Point", "coordinates": [98.72304027237409, 7.139426186247334]}}, {"type": "Feature", "properties": {"norad_id": 29228, "name": "RESURS-DK 1", "group": "resource", "lat": -63.32371660491895, "lon": -22.43350297606198, "alt_km": 531.0931575195355, "timestamp": "2025-12-09T05:43:20.384227+00:00", "meta": {"OBJECT_NAME": "RESURS-DK 1", "OBJECT_ID": "2006-021A", "EPOCH": "2025-12-08T19:05:06.967392", "MEAN_MOTION": 15.12128967, "ECCENTRICITY": 0.0007608, "INCLINATION": 69.9338, "RA_OF_ASC_NODE": 112.0315, "ARG_OF_PERICENTER": 262.3971, "MEAN_ANOMALY": 97.6331, "EPHEMERIS_TYPE": 0, "CLASSIFICATION_TYPE": "U", "NORAD_CAT_ID": 29228, "ELEMENT_SET_NO": 999, "REV_AT_EPOCH": 7378, "BSTAR": 0.00029267, "MEAN_MOTION_DOT": 4.953e-05, "MEAN_MOTION_DDOT": 0}, "tle": {"line1": "1 29228U 06021A   25342.79521953  .00004953  00000+0  29267-3 0  9998", "line2": "2 29228  69.9338 112.0315 0007608 262.3971  97.6331 15.12128967 73783"}}, "geometry": {"type": "Point", "coordinates": [-22.43350297606198, -63.32371660491895]}}, {"type": "Feature", "properties": {"norad_id": 29268, "name": "ARIRANG-2 (KOMPSAT-2)", "group": "resource", "lat": 58.58147475926476, "lon": 4.893150325100686, "alt_km": 682.1250381100854, "timestamp": "2025-12-09T05:43:20.384238+00:00", "meta": {"OBJECT_NAME": "ARIRANG-2 (KOMPSAT-2)", "OBJECT_ID": "2006-031A", "EPOCH": "2025-12-08T19:55:38.129952", "MEAN_MOTION": 14.64488921, "ECCENTRICITY": 0.0013722, "INCLINATION": 97.8257, "RA_OF_ASC_NODE": 171.4935, "ARG_OF_PERICENTER": 322.4149, "MEAN_ANOMALY": 167.5763, "EPHEMERIS_TYPE": 0, "CLASSIFICATION_TYPE": "U", "NORAD_CAT_ID": 29268, "ELEMENT_SET_NO": 999, "REV_AT_EPOCH": 3361, "BSTAR": 0.00015986, "MEAN_MOTION_DOT": 8.03e-06, "MEAN_MOTION_DDOT": 0}, "tle": {"line1": "1 29268U 06031A   25342.83030243  .00000803  00000+0  15986-3 0  9998", "line2": "2 29268  97.8257 171.4935 0013722 322.4149 167.5763 14.64488921 33612"}}, "geometry": {"type": "Point", "coordinates": [4.893150325100686, 58.58147475926476]}}, {"type": "Feature", "properties": {"norad_id": 29709, "name": "LAPAN-TUBSAT", "group": "resource", "lat": 31.038505738177665, "lon": 158.25451407739573, "alt_km": 605.6466095352489, "timestamp": "2025-12-09T05:43:20.384249+00:00", "meta": {"OBJECT_NAME": "LAPAN-TUBSAT", "OBJECT_ID": "2007-001A", "EPOCH": "2025-12-08T20:58:30.936288", "MEAN_MOTION": 14.85662733, "ECCENTRICITY": 0.0013684, "INCLINATION": 98.1253, "RA_OF_ASC_NODE": 332.9505, "ARG_OF_PERICENTER": 85.5707, "MEAN_ANOMALY": 274.7071, "EPHEMERIS_TYPE": 0, "CLASSIFICATION_TYPE": "U", "NORAD_CAT_ID": 29709, "ELEMENT_SET_NO": 999, "REV_AT_EPOCH": 2289, "BSTAR": 0.00017797, "MEAN_MOTION_DOT": 1.487e-05, "MEAN_MOTION_DDOT": 0}, "tle": {"line1": "1 29709U 07001A   25342.87396917  .00001487  00000+0  17797-3 0  9994", "line2": "2 29709  98.1253 332.9505 0013684  85.5707 274.7071 14.85662733 22892"}}, "geometry": {"type": "Point", "coordinates": [158.25451407739573, 31.038505738177665]}}, {"type": "Feature", "properties": {"norad_id": 31113, "name": "HAIYANG-1B", "group": "resource", "lat": 1.8312033203243887, "lon": -32.60721144694891, "alt_km": 783.978224880786, "timestamp": "2025-12-09T05:43:20.384260+00:00", "meta": {"OBJECT_NAME": "HAIYANG-1B", "OBJECT_ID": "2007-010A", "EPOCH": "2025-12-08T19:38:41.233056", "MEAN_MOTION": 14.30963232, "ECCENTRICITY": 0.0014424, "INCLINATION": 98.3311, "RA_OF_ASC_NODE": 327.2587, "ARG_OF_PERICENTER": 48.8795, "MEAN_ANOMALY": 311.3632, "EPHEMERIS_TYPE": 0, "CLASSIFICATION_TYPE": "U", "NORAD_CAT_ID": 31113, "ELEMENT_SET_NO": 999, "REV_AT_EPOCH": 97340, "BSTAR": 0.00011605, "MEAN_MOTION_DOT": 2.64e-06, "MEAN_MOTION_DDOT": 0}, "tle": {"line1": "1 31113U 07010A   25342.81853279  .00000264  00000+0  11605-3 0  9993", "line2": "2 31113  98.3311 327.2587 0014424  48.8795 311.3632 14.30963232973401"}}, "geometry": {"type": "Point", "coordinates": [-32.60721144694891, 1.8312033203243887]}}, {"type": "Feature", "properties": {"norad_id": 31598, "name": "COSMO-SKYMED 1", "group": "resource", "lat": -22.22949423007334, "lon": 171.86114277685692, "alt_km": 585.705350409602, "timestamp": "2025-12-09T05:43:20.384271+00:00", "meta": {"OBJECT_NAME": "COSMO-SKYMED 1", "OBJECT_ID": "2007-023A", "EPOCH": "2025-12-08T20:11:20.714208", "MEAN_MOTION": 14.95720476, "ECCENTRICITY": 0.0001053, "INCLINATION": 97.8834, "RA_OF_ASC_NODE": 168.2152, "ARG_OF_PERICENTER": 81.7095, "MEAN_ANOMALY": 278.4245, "EPHEMERIS_TYPE": 0, "CLASSIFICATION_TYPE": "U", "NORAD_CAT_ID": 31598, "ELEMENT_SET_NO": 999, "REV_AT_EPOCH": 132, "BSTAR": 0.00056303, "MEAN_MOTION_DOT": 6.214e-05, "MEAN_MOTION_DDOT": 0}, "tle": {"line1": "1 31598U 07023A   25342.84121197  .00006214  00000+0  56303-3 0  9999", "line2": "2 31598  97.8834 168.2152 0001053  81.7095 278.4245 14.95720476  1324"}}, "geometry": {"type": "Point", "coordinates": [171.86114277685692, -22.22949423007334]}}, {"type": "Feature", "properties": {"norad_id": 31698, "name": "TERRASAR-X", "group": "resource", "lat": 58.219295656285375, "lon": -23.51574499037062, "alt_km": 501.7388263217372, "timestamp": "2025-12-09T05:43:20.384281+00:00", "meta": {"OBJECT_NAME": "TERRASAR-X", "OBJECT_ID": "2007-026A", "EPOCH": "2025-12-08T12:04:27.872832", "MEAN_MOTION": 15.19158704, "ECCENTRICITY": 0.0001724, "INCLINATION": 97.4451, "RA_OF_ASC_NODE": 347.9445, "ARG_OF_PERICENTER": 89.3855, "MEAN_ANOMALY": 270.7577, "EPHEMERIS_TYPE": 0, "CLASSIFICATION_TYPE": "U", "NORAD_CAT_ID": 31698, "ELEMENT_SET_NO": 999, "REV_AT_EPOCH": 2427, "BSTAR": 0.00014009, "MEAN_MOTION_DOT": 2.877e-05, "MEAN_MOTION_DDOT": 0}, "tle": {"line1": "1 31698U 07026A   25342.50310038  .00002877  00000+0  14009-3 0  9998", "line2": "2 31698  97.4451 347.9445 0001724  89.3855 270.7577 15.19158704 24278"}}, "geometry": {"type": "Point", "coordinates": [-23.51574499037062, 58.219295656285375]}}, {"type": "Feature", "properties": {"norad_id": 32060, "name": "WORLDVIEW-1 (WV-1)", "group": "resource", "lat": -8.79951584420029, "lon": 101.91947685244162, "alt_km": 496.3378402159997, "timestamp": "2025-12-09T05:43:20.384295+00:00", "meta": {"OBJECT_NAME": "WORLDVIEW-1 (WV-1)", "OBJECT_ID": "2007-041A", "EPOCH": "2025-12-08T20:18:35.839296", "MEAN_MOTION": 15.24589953, "ECCENTRICITY": 7.77e-05, "INCLINATION": 97.3842, "RA_OF_ASC_NODE": 100.3826, "ARG_OF_PERICENTER": 102.4504, "MEAN_ANOMALY": 257.682, "EPHEMERIS_TYPE": 0, "CLASSIFICATION_TYPE": "U", "NORAD_CAT_ID": 32060, "ELEMENT_SET_NO": 999, "REV_AT_EPOCH": 1388, "BSTAR": 0.00047468, "MEAN_MOTION_DOT": 0.00011638, "MEAN_MOTION_DDOT": 0}, "tle": {"line1": "1 32060U 07041A   25342.84624814  .00011638  00000+0  47468-3 0  9996", "line2": "2 32060  97.3842 100.3826 0000777 102.4504 257.6820 15.24589953 13884"}}, "geometry": {"type": "Point", "coordinates": [101.91947685244162, -8.79951584420029]}}]}